NORAD_CAT_ID,OBJECT_NAME,OBJECT_TYPE,EPOCH,MEAN_MOTION,ECCENTRICITY,INCLINATION,RA_OF_ASC_NODE,ARG_OF_PERICENTER,MEAN_ANOMALY,BSTAR,MEAN_MOTION_DOT,MEAN_MOTION_DDOT,TLE_LINE0,TLE_LINE1,TLE_LINE2,SEMIMAJOR_AXIS,PERIOD,APOGEE,PERIGEE,DECAYED
53427.0,STARLINK-4541,PAYLOAD,2023-08-06 05:22:02,15.08826268,0.0001056,53.217,42.9674,105.3864,254.7245,-0.00024823,-4.235e-05,0.0,0 STARLINK-4541,1 53427U 22097AR  23218.22364501 -.00004235  00000-0 -24823-3 0  9998,2 53427  53.2170  42.9674 0001056 105.3864 254.7245 15.08826268 55287,6917.922,95.438,540.518,539.057,0.0
53427.0,STARLINK-4541,PAYLOAD,2023-08-07 17:55:56,15.08840056,0.0001103,53.2182,36.132,105.9011,254.2103,0.0003205,4.817e-05,0.0,0 STARLINK-4541,1 53427U 22097AR  23219.74717639  .00004817  00000-0  32050-3 0  9995,2 53427  53.2182  36.1320 0001103 105.9011 254.2103 15.08840056 55511,6917.88,95.438,540.508,538.982,0.0
53427.0,STARLINK-4541,PAYLOAD,2023-08-09 04:54:24,15.08860988,2.87e-05,53.2173,29.589,350.6657,9.4329,0.00054277,8.366e-05,0.0,0 STARLINK-4541,1 53427U 22097AR  23221.20444850  .00008366  00000-0  54277-3 0  9999,2 53427  53.2173  29.5890 0000287 350.6657   9.4329 15.08860988 55736,6917.816,95.436,539.88,539.483,0.0
53427.0,STARLINK-4541,PAYLOAD,2023-08-09 17:37:30,15.08825162,0.0001142,53.2141,27.2078,89.7086,270.4037,-0.00021686,-3.736e-05,0.0,0 STARLINK-4541,1 53427U 22097AR  23221.73438293 -.00003736  00000-0 -21686-3 0  9997,2 53427  53.2141  27.2078 0001142  89.7086 270.4037 15.08825162 55811,6917.926,95.438,540.581,539.001,0.0
53427.0,STARLINK-4541,PAYLOAD,2023-08-10 11:06:45,15.08846804,8.65e-05,53.2173,23.9394,75.5184,284.5904,0.00086019,0.00013431,0.0,0 STARLINK-4541,1 53427U 22097AR  23222.46302519  .00013431  00000-0  86019-3 0  9991,2 53427  53.2173  23.9394 0000865  75.5184 284.5904 15.08846804 55920,6917.86,95.437,540.323,539.126,0.0
53427.0,STARLINK-4541,PAYLOAD,2023-08-10 20:39:03,15.08879087,8.1e-05,53.2172,22.1552,57.1683,302.9387,0.0018255,0.00028915,0.0,0 STARLINK-4541,1 53427U 22097AR  23222.86045921  .00028915  00000-0  18255-2 0  9995,2 53427  53.2172  22.1552 0000810  57.1683 302.9387 15.08879087 55981,6917.761,95.435,540.186,539.066,0.0
53427.0,STARLINK-4541,PAYLOAD,2023-08-11 09:22:08,15.08864466,0.0001459,53.2173,19.776,36.3514,323.7577,0.0011492,0.00018061,0.0,0 STARLINK-4541,1 53427U 22097AR  23223.39037845  .00018061  00000-0  11492-2 0  9997,2 53427  53.2173  19.7760 0001459  36.3514 323.7577 15.08864466 56064,6917.806,95.436,540.68,538.661,0.0
53427.0,STARLINK-4541,PAYLOAD,2023-08-12 10:48:18,15.08855506,0.0001166,53.2175,15.0177,82.4903,277.6222,0.0010185,0.00015965,0.0,0 STARLINK-4541,1 53427U 22097AR  23224.45020960  .00015965  00000-0  10185-2 0  9993,2 53427  53.2175  15.0177 0001166  82.4903 277.6222 15.08855506 56223,6917.833,95.437,540.505,538.891,0.0
53427.0,STARLINK-4541,PAYLOAD,2023-08-12 17:09:50,15.08847314,7.8e-05,53.2179,13.8287,101.526,258.582,0.001044,0.0001637,0.0,0 STARLINK-4541,1 53427U 22097AR  23224.71516893  .00016370  00000-0  10440-2 0  9992,2 53427  53.2179  13.8287 0000780 101.5260 258.5820 15.08847314 56269,6917.858,95.437,540.263,539.183,0.0
53427.0,STARLINK-4541,PAYLOAD,2023-08-13 02:42:09,15.08848379,1.92e-05,53.217,12.0437,9.1288,350.9708,0.00057872,8.937e-05,0.0,0 STARLINK-4541,1 53427U 22097AR  23225.11260786  .00008937  00000-0  57872-3 0  9995,2 53427  53.2170  12.0437 0000192   9.1288 350.9708 15.08848379 56329,6917.855,95.437,539.853,539.587,0.0
53427.0,STARLINK-4541,PAYLOAD,2023-08-13 09:03:42,15.08836581,9.44e-05,53.2168,10.854,87.767,272.343,0.00031582,4.742e-05,0.0,0 STARLINK-4541,1 53427U 22097AR  23225.37757249  .00004742  00000-0  31582-3 0  9998,2 53427  53.2168  10.8540 0000944  87.7670 272.3430 15.08836581 56364,6917.891,95.438,540.409,539.103,0.0
53427.0,STARLINK-4541,PAYLOAD,2023-08-14 08:54:29,15.0883531,5.24e-05,53.2171,6.3948,82.9621,277.1431,7.3982e-05,8.9e-06,0.0,0 STARLINK-4541,1 53427U 22097AR  23226.37117465  .00000890  00000-0  73982-4 0  9990,2 53427  53.2171   6.3948 0000524  82.9621 277.1431 15.08835310 56517,6917.895,95.438,540.122,539.397,0.0
53427.0,STARLINK-4541,PAYLOAD,2023-08-14 21:37:34,15.08844571,0.000147,53.216,4.0163,51.4482,308.6641,0.0002184,3.19e-05,0.0,0 STARLINK-4541,1 53427U 22097AR  23226.90109384  .00003190  00000-0  21840-3 0  9991,2 53427  53.2160   4.0163 0001470  51.4482 308.6641 15.08844571 56596,6917.866,95.437,540.748,538.714,0.0
53427.0,STARLINK-4541,PAYLOAD,2023-08-15 10:20:39,15.08838803,9.4e-06,53.2174,1.6359,156.3053,203.7943,9.2111e-05,1.179e-05,0.0,0 STARLINK-4541,1 53427U 22097AR  23227.43101183  .00001179  00000-0  92111-4 0  9994,2 53427  53.2174   1.6359 0000094 156.3053 203.7943 15.08838803 56671,6917.884,95.438,539.814,539.684,0.0
53427.0,STARLINK-4541,PAYLOAD,2023-08-15 18:17:34,15.08853861,7.1e-05,53.2173,0.1488,74.3049,285.8022,0.00053022,8.164e-05,0.0,0 STARLINK-4541,1 53427U 22097AR  23227.76220894  .00008164  00000-0  53022-3 0  9999,2 53427  53.2173   0.1488 0000710  74.3049 285.8022 15.08853861 56722,6917.838,95.437,540.194,539.212,0.0
53427.0,STARLINK-4541,PAYLOAD,2023-08-16 02:14:30,15.0883886,3.18e-05,53.2173,358.6621,246.6037,113.4922,-1.335e-05,-5e-06,0.0,0 STARLINK-4541,1 53427U 22097AR  23228.09340894 -.00000500  00000-0 -13350-4 0  9998,2 53427  53.2173 358.6621 0000318 246.6037 113.4922 15.08838860 56779,6917.884,95.438,539.969,539.529,0.0
53427.0,STARLINK-4541,PAYLOAD,2023-08-16 18:08:22,15.08848906,7.42e-05,53.2164,355.6892,92.7107,267.397,0.00035133,5.309e-05,0.0,0 STARLINK-4541,1 53427U 22097AR  23228.75581065  .00005309  00000-0  35133-3 0  9990,2 53427  53.2164 355.6892 0000742  92.7107 267.3970 15.08848906 56870,6917.853,95.437,540.231,539.205,0.0
53427.0,STARLINK-4541,PAYLOAD,2023-08-17 17:59:09,15.08843063,0.0001636,53.2151,351.2264,102.5314,257.5861,0.0002436,3.591e-05,0.0,0 STARLINK-4541,1 53427U 22097AR  23229.74941364  .00003591  00000-0  24360-3 0  9993,2 53427  53.2151 351.2264 0001636 102.5314 257.5861 15.08843063 57021,6917.871,95.437,540.868,538.604,0.0
53427.0,STARLINK-4541,PAYLOAD,2023-08-18 17:49:56,15.0884342,0.0001009,53.2163,346.7682,88.8756,271.2352,0.00015128,2.121e-05,0.0,0 STARLINK-4541,1 53427U 22097AR  23230.74301381  .00002121  00000-0  15128-3 0  9994,2 53427  53.2163 346.7682 0001009  88.8756 271.2352 15.08843420 57178,6917.87,95.437,540.433,539.037,0.0
53427.0,STARLINK-4541,PAYLOAD,2023-08-19 11:19:11,15.08825988,0.0001317,53.2158,343.4974,91.5871,268.5272,0.00079643,0.00012405,0.0,0 STARLINK-4541,1 53427U 22097AR  23231.47166594  .00012405  00000-0  79643-3 0  9998,2 53427  53.2158 343.4974 0001317  91.5871 268.5272 15.08825988 57282,6917.923,95.438,540.699,538.877,0.0
53427.0,STARLINK-4541,PAYLOAD,2023-08-19 17:40:43,15.08847205,9.98e-05,53.2165,342.3083,89.9564,270.1543,0.00021971,3.211e-05,0.0,0 STARLINK-4541,1 53427U 22097AR  23231.73661353  .00003211  00000-0  21971-3 0  9996,2 53427  53.2165 342.3083 0000998  89.9564 270.1543 15.08847205 57324,6917.858,95.437,540.414,539.033,0.0
53427.0,STARLINK-4541,PAYLOAD,2023-08-20 12:45:21,15.08840608,9.22e-05,53.2173,338.7394,98.5007,261.609,0.00010788,1.43e-05,0.0,0 STARLINK-4541,1 53427U 22097AR  23232.53149737  .00001430  00000-0  10788-3 0  9997,2 53427  53.2173 338.7394 0000922  98.5007 261.6090 15.08840608 57447,6917.879,95.438,540.381,539.106,0.0
53427.0,STARLINK-4541,PAYLOAD,2023-08-21 14:11:31,15.08846168,9.35e-05,53.2179,333.9825,85.2327,274.8772,0.00018597,2.674e-05,0.0,0 STARLINK-4541,1 53427U 22097AR  23233.59133563  .00002674  00000-0  18597-3 0  9991,2 53427  53.2179 333.9825 0000935  85.2327 274.8772 15.08846168 57609,6917.862,95.437,540.373,539.08,0.0
53427.0,STARLINK-4541,PAYLOAD,2023-08-22 12:26:55,15.08838528,0.0001156,53.2187,329.8207,87.474,272.6385,9.4826e-05,1.222e-05,0.0,0 STARLINK-4541,1 53427U 22097AR  23234.51870299  .00001222  00000-0  94826-4 0  9996,2 53427  53.2187 329.8207 0001156  87.4740 272.6385 15.08838528 57747,6917.885,95.438,540.55,538.95,0.0
53427.0,STARLINK-4541,PAYLOAD,2023-08-24 12:08:29,15.08842899,0.0001193,53.2179,320.8996,89.7393,270.3736,0.00012799,1.75e-05,0.0,0 STARLINK-4541,1 53427U 22097AR  23236.50590159  .00001750  00000-0  12799-3 0  9995,2 53427  53.2179 320.8996 0001193  89.7393 270.3736 15.08842899 58522,6917.872,95.437,540.562,538.911,0.0
53427.0,STARLINK-4541,PAYLOAD,2023-08-25 11:59:16,15.08843527,0.0001224,53.2177,316.4398,84.3283,275.7848,7.1878e-05,8.56e-06,0.0,0 STARLINK-4541,1 53427U 22097AR  23237.49950090  .00000856  00000-0  71878-4 0  9998,2 53427  53.2177 316.4398 0001224  84.3283 275.7848 15.08843527 58679,6917.87,95.437,540.581,538.888,0.0
53427.0,STARLINK-4541,PAYLOAD,2023-08-26 10:14:41,15.08835917,0.0001256,53.2187,312.2772,94.7568,265.3568,5.9516e-05,6.59e-06,0.0,0 STARLINK-4541,1 53427U 22097AR  23238.42686615  .00000659  00000-0  59516-4 0  9997,2 53427  53.2187 312.2772 0001256  94.7568 265.3568 15.08835917 58337,6917.893,95.438,540.627,538.889,0.0
53427.0,STARLINK-4541,PAYLOAD,2023-08-26 11:50:04,15.08836125,0.0001249,53.2188,311.9799,95.2438,264.8696,5.6259e-05,6.08e-06,0.0,0 STARLINK-4541,1 53427U 22097AR  23238.49310603  .00000608  00000-0  56259-4 0  9990,2 53427  53.2188 311.9799 0001249  95.2438 264.8696 15.08836125 58829,6917.892,95.438,540.621,538.893,0.0
53427.0,STARLINK-4541,PAYLOAD,2023-08-26 15:00:50,15.0883981,0.0001206,53.2184,311.3837,99.5207,260.5921,7.2854e-05,8.72e-06,0.0,0 STARLINK-4541,1 53427U 22097AR  23238.62558296  .00000872  00000-0  72854-4 0  9999,2 53427  53.2184 311.3837 0001206  99.5207 260.5921 15.08839810 58846,6917.881,95.438,540.58,538.912,0.0
53427.0,STARLINK-4541,PAYLOAD,2023-08-27 10:05:27,15.08841865,0.0001307,53.2182,307.8148,108.035,252.0784,7.7524e-05,9.46e-06,0.0,0 STARLINK-4541,1 53427U 22097AR  23239.42046218  .00000946  00000-0  77524-4 0  9995,2 53427  53.2182 307.8148 0001307 108.0350 252.0784 15.08841865 58965,6917.875,95.437,540.644,538.836,0.0
